NORAD_CAT_ID,OBJECT_NAME,OBJECT_TYPE,EPOCH,MEAN_MOTION,ECCENTRICITY,INCLINATION,RA_OF_ASC_NODE,ARG_OF_PERICENTER,MEAN_ANOMALY,BSTAR,MEAN_MOTION_DOT,MEAN_MOTION_DDOT,TLE_LINE0,TLE_LINE1,TLE_LINE2,SEMIMAJOR_AXIS,PERIOD,APOGEE,PERIGEE,DECAYED
55279.0,STARLINK-5323,PAYLOAD,2024-04-16 21:48:38,14.98335384,0.0002491,70.0008,348.6916,255.8473,104.2409,0.000104,1.148e-05,0.0,0 STARLINK-5323,1 55279U 23010L   24107.90877773  .00001148  00000-0  10400-3 0  9998,2 55279  70.0008 348.6916 0002491 255.8473 104.2409 14.98335384 69162,6950.176,96.107,573.773,570.31,0.0
55279.0,STARLINK-5323,PAYLOAD,2024-04-17 02:37:01,14.98350783,0.0002599,70.001,348.1878,249.3074,110.7806,0.00023618,2.728e-05,0.0,0 STARLINK-5323,1 55279U 23010L   24108.10904213  .00002728  00000-0  23618-3 0  9991,2 55279  70.0010 348.1878 0002599 249.3074 110.7806 14.98350783 68871,6950.129,96.106,573.8,570.187,0.0
55279.0,STARLINK-5323,PAYLOAD,2024-04-17 21:50:40,14.98316658,0.0002991,70.0005,346.1668,263.9064,96.1754,-0.00016213,-2.026e-05,0.0,0 STARLINK-5323,1 55279U 23010L   24108.91019389 -.00002026  00000-0 -16213-3 0  9997,2 55279  70.0005 346.1668 0002991 263.9064  96.1754 14.98316658 68992,6950.234,96.108,574.178,570.02,0.0
55279.0,STARLINK-5323,PAYLOAD,2024-04-18 02:39:04,14.98320939,0.0003067,69.9998,345.6604,265.8943,94.1865,-0.00014883,-1.868e-05,0.0,0 STARLINK-5323,1 55279U 23010L   24109.11047161 -.00001868  00000-0 -14883-3 0  9993,2 55279  69.9998 345.6604 0003067 265.8943  94.1865 14.98320939 69344,6950.221,96.108,574.218,569.954,0.0
55279.0,STARLINK-5323,PAYLOAD,2024-04-18 20:16:32,14.98327756,0.0003034,70.0,343.809,265.557,94.5242,4.2332e-05,4.12e-06,0.0,0 STARLINK-5323,1 55279U 23010L   24109.84482636  .00000412  00000-0  42332-4 0  9996,2 55279  70.0000 343.8090 0003034 265.5570  94.5242 14.98327756 69131,6950.2,96.107,574.174,569.956,0.0
55279.0,STARLINK-5323,PAYLOAD,2024-04-18 21:52:44,14.98286113,0.0004199,69.9999,343.6433,210.898,149.1933,-0.00067442,-8.122e-05,0.0,0 STARLINK-5323,1 55279U 23010L   24109.91162474 -.00008122  00000-0 -67442-3 0  9995,2 55279  69.9999 343.6433 0004199 210.8980 149.1933 14.98286113 69466,6950.329,96.11,575.112,569.275,0.0
55279.0,STARLINK-5323,PAYLOAD,2024-04-19 01:04:55,14.98362277,0.0002347,69.9999,343.3046,269.6283,90.4607,0.00028236,3.28e-05,0.0,0 STARLINK-5323,1 55279U 23010L   24110.04508102  .00003280  00000-0  28236-3 0  9999,2 55279  69.9999 343.3046 0002347 269.6283  90.4607 14.98362277 69163,6950.093,96.105,573.589,570.327,0.0
55279.0,STARLINK-5323,PAYLOAD,2024-04-19 20:18:33,14.9831114,0.0002851,69.9994,341.2835,259.6957,100.388,7.1859e-05,7.64e-06,0.0,0 STARLINK-5323,1 55279U 23010L   24110.84621850  .00000764  00000-0  71859-4 0  9997,2 55279  69.9994 341.2835 0002851 259.6957 100.3880 14.98311140 69288,6950.251,96.108,574.098,570.135,0.0
55279.0,STARLINK-5323,PAYLOAD,2024-04-19 21:54:41,14.9830873,0.0002793,69.9996,341.115,258.3837,101.7008,4.6383e-05,4.6e-06,0.0,0 STARLINK-5323,1 55279U 23010L   24110.91298101  .00000460  00000-0  46383-4 0  9991,2 55279  69.9996 341.1150 0002793 258.3837 101.7008 14.98308730 69612,6950.259,96.108,574.065,570.182,0.0
55279.0,STARLINK-5323,PAYLOAD,2024-04-20 01:06:57,14.98315087,0.0003058,69.9995,340.7801,263.3073,96.7738,0.0001011,1.113e-05,0.0,0 STARLINK-5323,1 55279U 23010L   24111.04649674  .00001113  00000-0  10110-3 0  9995,2 55279  69.9995 340.7801 0003058 263.3073  96.7738 14.98315087 69630,6950.239,96.108,574.229,569.979,0.0
55279.0,STARLINK-5323,PAYLOAD,2024-04-20 21:56:43,14.98314265,0.0002585,70.001,338.5937,257.3097,102.7773,-0.00021055,-2.603e-05,0.0,0 STARLINK-5323,1 55279U 23010L   24111.91439334 -.00002603  00000-0 -21055-3 0  9998,2 55279  70.0010 338.5937 0002585 257.3097 102.7773 14.98314265 69767,6950.242,96.108,573.903,570.31,0.0
55279.0,STARLINK-5323,PAYLOAD,2024-04-21 01:08:59,14.98313963,0.0002461,70.0013,338.2575,253.0893,106.9996,-0.0002329,-2.869e-05,0.0,0 STARLINK-5323,1 55279U 23010L   24112.04791501 -.00002869  00000-0 -23290-3 0  9997,2 55279  70.0013 338.2575 0002461 253.0893 106.9996 14.98313963 69469,6950.242,96.108,573.818,570.397,0.0
55279.0,STARLINK-5323,PAYLOAD,2024-04-21 20:22:35,14.98315106,0.0002537,70.0006,336.2349,272.5997,87.4872,0.00027462,3.184e-05,0.0,0 STARLINK-5323,1 55279U 23010L   24112.84902094  .00003184  00000-0  27462-3 0  9990,2 55279  70.0006 336.2349 0002537 272.5997  87.4872 14.98315106 69583,6950.239,96.108,573.867,570.341,0.0
55279.0,STARLINK-5323,PAYLOAD,2024-04-21 21:58:43,14.98316474,0.0002519,70.0,336.065,276.7543,83.3329,0.00034439,4.017e-05,0.0,0 STARLINK-5323,1 55279U 23010L   24112.91578028  .00004017  00000-0  34439-3 0  9992,2 55279  70.0000 336.0650 0002519 276.7543  83.3329 14.98316474 69911,6950.235,96.108,573.85,570.349,0.0
55279.0,STARLINK-5323,PAYLOAD,2024-04-22 01:10:59,14.98322214,0.0002048,70.0033,335.7339,258.8192,101.2737,0.00050129,5.892e-05,0.0,0 STARLINK-5323,1 55279U 23010L   24113.04930465  .00005892  00000-0  50129-3 0  9990,2 55279  70.0033 335.7339 0002048 258.8192 101.2737 14.98322214 69939,6950.217,96.107,573.505,570.659,0.0
55279.0,STARLINK-5323,PAYLOAD,2024-04-22 20:24:37,14.98312941,0.0002207,70.0015,333.7116,249.2315,110.8607,0.00026841,3.11e-05,0.0,0 STARLINK-5323,1 55279U 23010L   24113.85043051  .00003110  00000-0  26841-3 0  9990,2 55279  70.0015 333.7116 0002207 249.2315 110.8607 14.98312941 69734,6950.246,96.108,573.645,570.577,0.0
55279.0,STARLINK-5323,PAYLOAD,2024-04-22 22:00:45,14.98309909,0.0002199,70.0016,333.5435,251.9163,108.1757,0.00022732,2.619e-05,0.0,0 STARLINK-5323,1 55279U 23010L   24113.91719408  .00002619  00000-0  22732-3 0  9991,2 55279  70.0016 333.5435 0002199 251.9163 108.1757 14.98309909 70062,6950.255,96.108,573.648,570.592,0.0
55279.0,STARLINK-5323,PAYLOAD,2024-04-22 23:36:53,14.98310035,0.0002203,70.0017,333.3753,246.802,113.2907,0.00023028,2.654e-05,0.0,0 STARLINK-5323,1 55279U 23010L   24113.98395432  .00002654  00000-0  23028-3 0  9993,2 55279  70.0017 333.3753 0002203 246.8020 113.2907 14.98310035 70072,6950.255,96.108,573.651,570.588,0.0
55279.0,STARLINK-5323,PAYLOAD,2024-04-23 20:26:37,14.98334233,0.0002658,70.0003,331.1854,255.9517,104.1347,8.8027e-05,9.58e-06,0.0,0 STARLINK-5323,1 55279U 23010L   24114.85182422  .00000958  00000-0  88027-4 0  9999,2 55279  70.0003 331.1854 0002658 255.9517 104.1347 14.98334233 69881,6950.18,96.107,573.892,570.197,0.0
55279.0,STARLINK-5323,PAYLOAD,2024-04-23 22:02:45,14.98336991,0.0002687,69.9999,331.0162,256.4122,103.6738,0.00012372,1.384e-05,0.0,0 STARLINK-5323,1 55279U 23010L   24114.91858146  .00001384  00000-0  12372-3 0  9992,2 55279  69.9999 331.0162 0002687 256.4122 103.6738 14.98336991 70213,6950.171,96.107,573.904,570.169,0.0
55279.0,STARLINK-5323,PAYLOAD,2024-04-24 01:15:01,14.98336284,0.0002492,70.0011,330.6806,239.684,120.4072,0.00014689,1.66e-05,0.0,0 STARLINK-5323,1 55279U 23010L   24115.05210141  .00001660  00000-0  14689-3 0  9995,2 55279  70.0011 330.6806 0002492 239.6840 120.4072 14.98336284 70230,6950.173,96.107,573.77,570.306,0.0
55279.0,STARLINK-5323,PAYLOAD,2024-04-24 20:28:38,14.98329348,0.0003034,69.9994,328.6594,267.2691,92.8121,0.00012533,1.403e-05,0.0,0 STARLINK-5323,1 55279U 23010L   24115.85322672  .00001403  00000-0  12533-3 0  9997,2 55279  69.9994 328.6594 0003034 267.2691  92.8121 14.98329348 70030,6950.195,96.107,574.169,569.951,0.0
55279.0,STARLINK-5323,PAYLOAD,2024-04-24 22:04:46,14.98328562,0.0002797,70.0002,328.4921,257.1847,102.8999,0.00014003,1.578e-05,0.0,0 STARLINK-5323,1 55279U 23010L   24115.91998712  .00001578  00000-0  14003-3 0  9995,2 55279  70.0002 328.4921 0002797 257.1847 102.8999 14.98328562 70369,6950.197,96.107,574.006,570.118,0.0
55279.0,STARLINK-5323,PAYLOAD,2024-04-24 23:40:54,14.98330784,0.0003068,69.9997,328.3238,264.9326,95.1483,0.00015946,1.81e-05,0.0,0 STARLINK-5323,1 55279U 23010L   24115.98674512  .00001810  00000-0  15946-3 0  9997,2 55279  69.9997 328.3238 0003068 264.9326  95.1483 14.98330784 70371,6950.19,96.107,574.188,569.923,0.0
55279.0,STARLINK-5323,PAYLOAD,2024-04-25 20:30:39,14.98335585,0.000271,70.001,326.1371,249.9426,110.1442,6.9437e-05,7.36e-06,0.0,0 STARLINK-5323,1 55279U 23010L   24116.85462396  .00000736  00000-0  69437-4 0  9990,2 55279  70.0010 326.1371 0002710 249.9426 110.1442 14.98335585 70187,6950.176,96.107,573.924,570.157,0.0
55279.0,STARLINK-5323,PAYLOAD,2024-04-25 22:06:47,14.98335127,0.0002679,70.001,325.9683,248.2492,111.8382,9.2247e-05,1.008e-05,0.0,0 STARLINK-5323,1 55279U 23010L   24116.92138373  .00001008  00000-0  92247-4 0  9991,2 55279  70.0010 325.9683 0002679 248.2492 111.8382 14.98335127 70519,6950.177,96.107,573.904,570.18,0.0
55279.0,STARLINK-5323,PAYLOAD,2024-04-26 14:08:08,14.98329652,0.0002579,70.001,324.2845,267.7038,92.3826,0.00015795,1.792e-05,0.0,0 STARLINK-5323,1 55279U 23010L   24117.58898462  .00001792  00000-0  15795-3 0  9998,2 55279  70.0010 324.2845 0002579 267.7038  92.3826 14.98329652 70615,6950.194,96.107,573.851,570.267,0.0
55279.0,STARLINK-5323,PAYLOAD,2024-04-26 15:44:16,14.9832828,0.0002858,70.0008,324.1153,273.6713,86.4119,0.00014461,1.633e-05,0.0,0 STARLINK-5323,1 55279U 23010L   24117.65574569  .00001633  00000-0  14461-3 0  9998,2 55279  70.0008 324.1153 0002858 273.6713  86.4119 14.98328280 70300,6950.198,96.107,574.05,570.077,0.0
55279.0,STARLINK-5323,PAYLOAD,2024-04-26 22:08:48,14.98335275,0.0003073,69.9993,323.4421,261.0745,99.0066,0.0001406,1.585e-05,0.0,0 STARLINK-5323,1 55279U 23010L   24117.92278022  .00001585  00000-0  14060-3 0  9994,2 55279  69.9993 323.4421 0003073 261.0745  99.0066 14.98335275 70668,6950.177,96.107,574.177,569.906,0.0
55279.0,STARLINK-5323,PAYLOAD,2024-04-26 23:44:56,14.98337205,0.0003367,69.9986,323.2715,272.7531,87.3243,0.00016442,1.87e-05,0.0,0 STARLINK-5323,1 55279U 23010L   24117.98953866  .00001870  00000-0  16442-3 0  9999,2 55279  69.9986 323.2715 0003367 272.7531  87.3243 14.98337205 70350,6950.171,96.107,574.376,569.695,0.0
